{"type": "FeatureCollection", "features": [ {"type": "Feature", "properties": {"norad_id": 37834, "name": "INTELSAT 18 (IS-18)", "group": "intelsat", "lat": -0.027970632653310176, "lon": -107.19033090311574, "alt_km": 35780.07629073243, "timestamp": "2025-12-22T22:44:20.618648+00:00", "meta": {"OBJECT_NAME": "INTELSAT 18 (IS-18)", "OBJECT_ID": "2011-056A", "EPOCH": "2025-12-22T14:10:38.818848", "MEAN_MOTION": 1.00271327, "ECCENTRICITY": 0.00017203, "INCLINATION": 0.0283, "RA_OF_ASC_NODE": 283.3564, "ARG_OF_PERICENTER": 2.5315, "MEAN_ANOMALY": 198.1643, "EPHEMERIS_TYPE": 0, "CLASSIFICATION_TYPE": "U", "NORAD_CAT_ID": 37834, "ELEMENT_SET_NO": 999, "REV_AT_EPOCH": 5204, "BSTAR": 0, "MEAN_MOTION_DOT": 7.4e-07, "MEAN_MOTION_DDOT": 0}, "tle": {"line1": "1 37834U 11056A   25356.59072707  .00000074  00000+0  00000+0 0  9995", "line2": "2 37834   0.0283 283.3564 0001720   2.5315 198.1643  1.00271327 52043"}}, "geometry": {"type": "Point", "coordinates": [-107.19033090311574, -0.027970632653310176]}}, {"type": "Feature", "properties": {"norad_id": 38098, "name": "INTELSAT 22 (IS-22)", "group": "intelsat", "lat": 0.016179054482852083, "lon": 144.90419076644343, "alt_km": 35792.221980040515, "timestamp": "2025-12-22T22:44:20.618661+00:00", "meta": {"OBJECT_NAME": "INTELSAT 22 (IS-22)", "OBJECT_ID": "2012-011A", "EPOCH": "2025-12-22T13:30:29.952288", "MEAN_MOTION": 1.00271151, "ECCENTRICITY": 0.00017608, "INCLINATION": 0.0052, "RA_OF_ASC_NODE": 351.1264, "ARG_OF_PERICENTER": 297.1171, "MEAN_ANOMALY": 77.8405, "EPHEMERIS_TYPE": 0, "CLASSIFICATION_TYPE": "U", "NORAD_CAT_ID": 38098, "ELEMENT_SET_NO": 999, "REV_AT_EPOCH": 541, "BSTAR": 0, "MEAN_MOTION_DOT": -3.7e-07, "MEAN_MOTION_DDOT": 0}, "tle": {"line1": "1 38098U 12011A   25356.56284667 -.00000037  00000+0  00000+0 0  9997", "line2": "2 38098   0.0052 351.1264 0001760 297.1171  77.8405  1.00271151  5410"}}, "geometry": {"type": "Point", "coordinates": [144.90419076644343, 0.016179054482852083]}}, {"type": "Feature", "properties": {"norad_id": 38356, "name": "INTELSAT 19 (IS-19)", "group": "intelsat", "lat": -0.03230249311625774, "lon": -121.19007304709, "alt_km": 35775.48066181274, "timestamp": "2025-12-22T22:44:20.618673+00:00", "meta": {"OBJECT_NAME": "INTELSAT 19 (IS-19)", "OBJECT_ID": "2012-030A", "EPOCH": "2025-12-22T12:14:29.729184", "MEAN_MOTION": 1.00272136, "ECCENTRICITY": 0.00028333, "INCLINATION": 0.0186, "RA_OF_ASC_NODE": 312.8711, "ARG_OF_PERICENTER": 314.85, "MEAN_ANOMALY": 173.2179, "EPHEMERIS_TYPE": 0, "CLASSIFICATION_TYPE": "U", "NORAD_CAT_ID": 38356, "ELEMENT_SET_NO": 999, "REV_AT_EPOCH": 4868, "BSTAR": 0, "MEAN_MOTION_DOT": -3.5e-07, "MEAN_MOTION_DDOT": 0}, "tle": {"line1": "1 38356U 12030A   25356.51006631 -.00000035  00000+0  00000+0 0  9991", "line2": "2 38356   0.0186 312.8711 0002833 314.8500 173.2179  1.00272136 48680"}}, "geometry": {"type": "Point", "coordinates": [-121.19007304709, -0.03230249311625774]}}, {"type": "Feature", "properties": {"norad_id": 38740, "name": "INTELSAT 20 (IS-20)", "group": "intelsat", "lat": 0.026538881851025594, "lon": 141.28365702854174, "alt_km": 35775.33328253107, "timestamp": "2025-12-22T22:44:20.618685+00:00", "meta": {"OBJECT_NAME": "INTELSAT 20 (IS-20)", "OBJECT_ID": "2012-043A", "EPOCH": "2025-12-22T13:29:30.047712", "MEAN_MOTION": 1.00271448, "ECCENTRICITY": 0.00034309, "INCLINATION": 0.0102, "RA_OF_ASC_NODE": 54.1338, "ARG_OF_PERICENTER": 128.3433, "MEAN_ANOMALY": 179.7492, "EPHEMERIS_TYPE": 0, "CLASSIFICATION_TYPE": "U", "NORAD_CAT_ID": 38740, "ELEMENT_SET_NO": 999, "REV_AT_EPOCH": 4897, "BSTAR": 0, "MEAN_MOTION_DOT": -3e-08, "MEAN_MOTION_DDOT": 0}, "tle": {"line1": "1 38740U 12043A   25356.56215333 -.00000003  00000+0  00000+0 0  9993", "line2": "2 38740   0.0102  54.1338 0003430 128.3433 179.7492  1.00271448 48979"}}, "geometry": {"type": "Point", "coordinates": [141.28365702854174, 0.026538881851025594]}}, {"type": "Feature", "properties": {"norad_id": 38749, "name": "INTELSAT 21 (IS-21)", "group": "intelsat", "lat": 0.019150083852016365, "lon": 14.841525976094143, "alt_km": 35788.42717493936, "timestamp": "2025-12-22T22:44:20.618697+00:00", "meta": {"OBJECT_NAME": "INTELSAT 21 (IS-21)", "OBJECT_ID": "2012-045A", "EPOCH": "2025-12-22T11:10:42.038112", "MEAN_MOTION": 1.00271377, "ECCENTRICITY": 0.00015424, "INCLINATION": 0.0199, "RA_OF_ASC_NODE": 296.3532, "ARG_OF_PERICENTER": 328.9241, "MEAN_ANOMALY": 295.6698, "EPHEMERIS_TYPE": 0, "CLASSIFICATION_TYPE": "U", "NORAD_CAT_ID": 38749, "ELEMENT_SET_NO": 999, "REV_AT_EPOCH": 4875, "BSTAR": 0, "MEAN_MOTION_DOT": -2.63e-06, "MEAN_MOTION_DDOT": 0}, "tle": {"line1": "1 38749U 12045A   25356.46576433 -.00000263  00000+0  00000+0 0  9992", "line2": "2 38749   0.0199 296.3532 0001542 328.9241 295.6698  1.00271377 48750"}}, "geometry": {"type": "Point", "coordinates": [14.841525976094143, 0.019150083852016365]}}, {"type": "Feature", "properties": {"norad_id": 38867, "name": "INTELSAT 23 (IS-23)", "group": "intelsat", "lat": -0.01317449957426147, "lon": 19.839691940862213, "alt_km": 35786.40761928803, "timestamp": "2025-12-22T22:44:20.618709+00:00", "meta": {"OBJECT_NAME": "INTELSAT 23 (IS-23)", "OBJECT_ID": "2012-057A", "EPOCH": "2025-12-22T09:29:21.741792", "MEAN_MOTION": 1.00268794, "ECCENTRICITY": 6.983e-05, "INCLINATION": 0.0202, "RA_OF_ASC_NODE": 72.6347, "ARG_OF_PERICENTER": 228.7277, "MEAN_ANOMALY": 239.193, "EPHEMERIS_TYPE": 0, "CLASSIFICATION_TYPE": "U", "NORAD_CAT_ID": 38867, "ELEMENT_SET_NO": 999, "REV_AT_EPOCH": 4818, "BSTAR": 0, "MEAN_MOTION_DOT": -2.63e-06, "MEAN_MOTION_DDOT": 0}, "tle": {"line1": "1 38867U 12057A   25356.39539053 -.00000263  00000+0  00000+0 0  9995", "line2": "2 38867   0.0202  72.6347 0000698 228.7277 239.1930  1.00268794 48180"}}, "geometry": {"type": "Point", "coordinates": [19.839691940862213, -0.01317449957426147]}}, {"type": "Feature", "properties": {"norad_id": 39360, "name": "FM-6", "group": "intelsat", "lat": -0.027018057939298117, "lon": -43.26495812448639, "alt_km": 35783.30798953133, "timestamp": "2025-12-22T22:44:20.618720+00:00", "meta": {"OBJECT_NAME": "FM-6", "OBJECT_ID": "2013-058A", "EPOCH": "2025-12-22T10:54:06.126048", "MEAN_MOTION": 1.00295486, "ECCENTRICITY": 0.00025049, "INCLINATION": 0.0105, "RA_OF_ASC_NODE": 56.8599, "ARG_OF_PERICENTER": 147.9876, "MEAN_ANOMALY": 293.7792, "EPHEMERIS_TYPE": 0, "CLASSIFICATION_TYPE": "U", "NORAD_CAT_ID": 39360, "ELEMENT_SET_NO": 999, "REV_AT_EPOCH": 4430, "BSTAR": 0, "MEAN_MOTION_DOT": 1e-08, "MEAN_MOTION_DDOT": 0}, "tle": {"line1": "1 39360U 13058A   25356.45423757  .00000001  00000+0  00000+0 0  9995", "line2": "2 39360   0.0105  56.8599 0002504 147.9876 293.7792  1.00295486 44309"}}, "geometry": {"type": "Point", "coordinates": [-43.26495812448639, -0.027018057939298117]}}, {"type": "Feature", "properties": {"norad_id": 40271, "name": "INTELSAT 30 (IS-30)", "group": "intelsat", "lat": -0.021708868047978603, "lon": -22.239011879716777, "alt_km": 35788.88663283596, "timestamp": "2025-12-22T22:44:20.618732+00:00", "meta": {"OBJECT_NAME": "INTELSAT 30 (IS-30)", "OBJECT_ID": "2014-062A", "EPOCH": "2025-12-22T11:00:05.552640", "MEAN_MOTION": 1.00272577, "ECCENTRICITY": 0.00015792, "INCLINATION": 0.0108, "RA_OF_ASC_NODE": 21.0351, "ARG_OF_PERICENTER": 73.4094, "MEAN_ANOMALY": 66.7935, "EPHEMERIS_TYPE": 0, "CLASSIFICATION_TYPE": "U", "NORAD_CAT_ID": 40271, "ELEMENT_SET_NO": 999, "REV_AT_EPOCH": 502, "BSTAR": 0, "MEAN_MOTION_DOT": -1.29e-06, "MEAN_MOTION_DDOT": 0}, "tle": {"line1": "1 40271U 14062A   25356.45839760 -.00000129  00000+0  00000+0 0  9991", "line2": "2 40271   0.0108  21.0351 0001579  73.4094  66.7935  1.00272577  5020"}}, "geometry": {"type": "Point", "coordinates": [-22.239011879716777, -0.021708868047978603]}}, {"type": "Feature", "properties": {"norad_id": 40333, "name": "DIRECTV 14", "group": "intelsat", "lat": -0.007707330731272711, "lon": -26.381977313267413, "alt_km": 35785.36297617326, "timestamp": "2025-12-22T22:44:20.618744+00:00", "meta": {"OBJECT_NAME": "DIRECTV 14", "OBJECT_ID": "2014-078B", "EPOCH": "2025-12-22T12:41:39.864768", "MEAN_MOTION": 1.00276684, "ECCENTRICITY": 2.503e-05, "INCLINATION": 0.0114, "RA_OF_ASC_NODE": 332.5192, "ARG_OF_PERICENTER": 233.2346, "MEAN_ANOMALY": 336.7793, "EPHEMERIS_TYPE": 0, "CLASSIFICATION_TYPE": "U", "NORAD_CAT_ID": 40333, "ELEMENT_SET_NO": 999, "REV_AT_EPOCH": 4027, "BSTAR": 0, "MEAN_MOTION_DOT": -1.05e-06, "MEAN_MOTION_DDOT": 0}, "tle": {"line1": "1 40333U 14078B   25356.52893362 -.00000105  00000+0  00000+0 0  9997", "line2": "2 40333   0.0114 332.5192 0000250 233.2346 336.7793  1.00276684 40271"}}, "geometry": {"type": "Point", "coordinates": [-26.381977313267413, -0.007707330731272711]}}, {"type": "Feature", "properties": {"norad_id": 40663, "name": "DIRECTV 15", "group": "intelsat", "lat": -0.03346096890173377, "lon": -30.0451785624308, "alt_km": 35786.79621715658, "timestamp": "2025-12-22T22:44:20.618756+00:00", "meta": {"OBJECT_NAME": "DIRECTV 15", "OBJECT_ID": "2015-026A", "EPOCH": "2025-12-22T10:57:50.767776", "MEAN_MOTION": 1.00273682, "ECCENTRICITY": 4.03e-05, "INCLINATION": 0.0228, "RA_OF_ASC_NODE": 18.0826, "ARG_OF_PERICENTER": 174.8606, "MEAN_ANOMALY": 319.9041, "EPHEMERIS_TYPE": 0, "CLASSIFICATION_TYPE": "U", "NORAD_CAT_ID": 40663, "ELEMENT_SET_NO": 999, "REV_AT_EPOCH": 3869, "BSTAR": 0, "MEAN_MOTION_DOT": 0, "MEAN_MOTION_DDOT": 0}, "tle": {"line1": "1 40663U 15026A   25356.45683759  .00000000  00000+0  00000+0 0  9999", "line2": "2 40663   0.0228  18.0826 0000403 174.8606 319.9041  1.00273682 38699"}}, "geometry": {"type": "Point", "coordinates": [-30.0451785624308, -0.03346096890173377]}}]}